NORAD_CAT_ID,OBJECT_NAME,OBJECT_TYPE,EPOCH,MEAN_MOTION,ECCENTRICITY,INCLINATION,RA_OF_ASC_NODE,ARG_OF_PERICENTER,MEAN_ANOMALY,BSTAR,MEAN_MOTION_DOT,MEAN_MOTION_DDOT,TLE_LINE0,TLE_LINE1,TLE_LINE2,SEMIMAJOR_AXIS,PERIOD,APOGEE,PERIGEE,DECAYED
51132.0,STARLINK-3393,PAYLOAD,2022-10-24 08:17:55,15.08873745,0.0002351,53.2185,71.344,39.2008,320.9154,0.00059496,9.202e-05,0.0,0 STARLINK-3393,1 51132U 22005AE  22297.34578160  .00009202  00000-0  59496-3 0  9996,2 51132  53.2185  71.3440 0002351  39.2008 320.9154 15.08873745 42682,6917.776999999999,95.435,541.269,538.016,0.0
51132.0,STARLINK-3393,PAYLOAD,2022-10-24 16:14:47,15.08916477,0.0002327,53.2183,69.8557,31.142,328.9709,0.0010267,0.00016124,0.0,0 STARLINK-3393,1 51132U 22005AE  22297.67693767  .00016124  00000-0  10267-2 0  9996,2 51132  53.2183  69.8557 0002327  31.1420 328.9709 15.08916477 42733,6917.647,95.433,541.121,537.9019999999998,0.0
51132.0,STARLINK-3393,PAYLOAD,2022-10-25 08:08:30,15.08939829,0.0002513,53.2188,66.8823,55.7583,304.3647,0.0027319,0.0004358,0.0,0 STARLINK-3393,1 51132U 22005AE  22298.33924236  .00043580  00000-0  27319-2 0  9990,2 51132  53.2188  66.8823 0002513  55.7583 304.3647 15.08939829 43950,6917.575,95.431,541.179,537.702,0.0
51132.0,STARLINK-3393,PAYLOAD,2022-10-25 11:19:23,15.08845755,0.0002536,53.2189,66.2867,11.0082,349.0965,0.0019125999999999,0.00030288,0.0,0 STARLINK-3393,1 51132U 22005AE  22298.47179721  .00030288  00000-0  19126-2 0  9994,2 51132  53.2189  66.2867 0002536  11.0082 349.0965 15.08845755 42858,6917.863,95.437,541.482,537.9730000000002,0.0
51132.0,STARLINK-3393,PAYLOAD,2022-10-25 17:40:58,15.08860492,0.0002466,53.2191,65.0989,39.389,320.7281,0.00035971,5.444e-05,0.0,0 STARLINK-3393,1 51132U 22005AE  22298.73678635  .00005444  00000-0  35971-3 0  9994,2 51132  53.2191  65.0989 0002466  39.3890 320.7281 15.08860492 44017,6917.818,95.436,541.389,537.977,0.0
51132.0,STARLINK-3393,PAYLOAD,2022-10-26 00:02:33,15.0883503,0.0002218,53.2182,63.909,38.8144,321.3007,-0.00037522,-6.254e-05,0.0,0 STARLINK-3393,1 51132U 22005AE  22299.00177435 -.00006254  00000-0 -37522-3 0  9993,2 51132  53.2182  63.9090 0002218  38.8144 321.3007 15.08835030 44055,6917.896,95.438,541.295,538.226,0.0
51132.0,STARLINK-3393,PAYLOAD,2022-10-26 07:59:27,15.08855424,0.0002045999999999,53.2184,62.4224,47.5009,312.6156,-0.00078787,-0.00012811,0.0,0 STARLINK-3393,1 51132U 22005AE  22299.33296160 -.00012811  00000-0 -78787-3 0  9990,2 51132  53.2184  62.4224 0002046  47.5009 312.6156 15.08855424 42983,6917.833000000001,95.437,541.114,538.283,0.0
51132.0,STARLINK-3393,PAYLOAD,2022-10-26 17:31:45,15.08862121,0.0002765,53.219,60.6398,34.3522,325.7648,-0.00083281,-0.00013527,0.0,0 STARLINK-3393,1 51132U 22005AE  22299.73038995 -.00013527  00000-0 -83281-3 0  9994,2 51132  53.2190  60.6398 0002765  34.3522 325.7648 15.08862121 44169,6917.813,95.436,541.591,537.765,0.0
51132.0,STARLINK-3393,PAYLOAD,2022-10-27 01:28:40,15.08880881,0.0002658,53.2191,59.1528,34.9992,325.1175,-0.0010995,-0.00017765,0.0,0 STARLINK-3393,1 51132U 22005AE  22300.06157478 -.00017765  00000-0 -10995-2 0  9990,2 51132  53.2191  59.1528 0002658  34.9992 325.1175 15.08880881 44214,6917.755,95.435,541.4590000000002,537.7819999999998,0.0
51132.0,STARLINK-3393,PAYLOAD,2022-10-27 14:11:43,15.08843784,0.0003109,53.219,56.7739,22.8529,337.2601,-0.00053468,-8.79e-05,0.0,0 STARLINK-3393,1 51132U 22005AE  22300.59147818 -.00008790  00000-0 -53468-3 0  9996,2 51132  53.2190  56.7739 0003109  22.8529 337.2601 15.08843784 43177,6917.869000000002,95.437,541.885,537.5830000000002,0.0
51132.0,STARLINK-3393,PAYLOAD,2022-10-27 15:47:06,15.08843731,0.0003159,53.2191,56.4768,23.186,336.9274,-0.00051535,-8.483e-05,0.0,0 STARLINK-3393,1 51132U 22005AE  22300.65771683 -.00008483  00000-0 -51535-3 0  9998,2 51132  53.2191  56.4768 0003159  23.1860 336.9274 15.08843731 43189,6917.869000000002,95.437,541.919,537.549,0.0
51132.0,STARLINK-3393,PAYLOAD,2022-10-28 01:19:28,15.08802277,0.0003123,53.2187,54.6929,36.7556,323.365,0.00032471,4.878e-05,0.0,0 STARLINK-3393,1 51132U 22005AE  22301.05518636  .00004878  00000-0  32471-3 0  9990,2 51132  53.2187  54.6929 0003123  36.7556 323.3650 15.08802277 44365,6917.996,95.44,542.021,537.7,0.0
51132.0,STARLINK-3393,PAYLOAD,2022-10-29 09:07:10,15.08857308,0.00032,53.2173,48.7457,37.7349,322.3867,0.00079628,0.00012414,0.0,0 STARLINK-3393,1 51132U 22005AE  22302.37998122  .00012414  00000-0  79628-3 0  9998,2 51132  53.2173  48.7457 0003200  37.7349 322.3867 15.08857308 43449,6917.8269999999975,95.436,541.906,537.479,0.0
51132.0,STARLINK-3393,PAYLOAD,2022-10-29 17:04:05,15.08854231,0.0003072,53.2178,47.2581,33.6739,326.4448,0.00043053,6.573e-05,0.0,0 STARLINK-3393,1 51132U 22005AE  22302.71117826  .00006573  00000-0  43053-3 0  9992,2 51132  53.2178  47.2581 0003072  33.6739 326.4448 15.08854231 43498,6917.837,95.437,541.827,537.577,0.0
51132.0,STARLINK-3393,PAYLOAD,2022-10-30 10:33:20,15.08845408,0.0002848,53.2176,43.9869,37.4749,322.6441,0.00027742,4.13e-05,0.0,0 STARLINK-3393,1 51132U 22005AE  22303.43981976  .00004130  00000-0  27742-3 0  9991,2 51132  53.2176  43.9869 0002848  37.4749 322.6441 15.08845408 43601,6917.864000000001,95.437,541.6990000000002,537.759,0.0
51132.0,STARLINK-3393,PAYLOAD,2022-10-30 16:54:53,15.08831151,0.0002948,53.2166,42.799,32.0252,328.0919,-9.114e-06,-4.34e-06,0.0,0 STARLINK-3393,1 51132U 22005AE  22303.70478325 -.00000434  00000-0 -91140-5 0  9990,2 51132  53.2166  42.7990 0002948  32.0252 328.0919 15.08831151 43647,6917.906999999997,95.438,541.812,537.7330000000002,0.0
51132.0,STARLINK-3393,PAYLOAD,2022-10-31 10:24:08,15.08825297,0.0002925,53.2171,39.5271,31.945,328.1719,7.8384e-05,9.59e-06,0.0,0 STARLINK-3393,1 51132U 22005AE  22304.43343292  .00000959  00000-0  78384-4 0  9999,2 51132  53.2171  39.5271 0002925  31.9450 328.1719 15.08825297 43757,6917.925,95.438,541.814,537.7669999999998,0.0
51132.0,STARLINK-3393,PAYLOAD,2022-10-31 15:10:18,15.08826983,0.0002953,53.217,38.6353,31.7257,328.3912,1.6325e-05,-2.9e-07,0.0,0 STARLINK-3393,1 51132U 22005AE  22304.63215451 -.00000029  00000-0  16325-4 0  9992,2 51132  53.2170  38.6353 0002953  31.7257 328.3912 15.08826983 44909,6917.92,95.438,541.828,537.742,0.0
51132.0,STARLINK-3393,PAYLOAD,2022-10-31 23:07:13,15.08845157,0.0003056,53.2171,37.1484,31.8217,328.2959,0.00036683,5.556e-05,0.0,0 STARLINK-3393,1 51132U 22005AE  22304.96334998  .00005556  00000-0  36683-3 0  9993,2 51132  53.2171  37.1484 0003056  31.8217 328.2959 15.08845157 44950,6917.865,95.437,541.844,537.616,0.0
51132.0,STARLINK-3393,PAYLOAD,2022-11-01 10:14:56,15.08832469,0.0002806,53.2163,35.0674,29.9315,330.1838,0.00019458,2.809e-05,0.0,0 STARLINK-3393,1 51132U 22005AE  22305.42703722  .00002809  00000-0  19458-3 0  9999,2 51132  53.2163  35.0674 0002806  29.9315 330.1838 15.08832469 45027,6917.903,95.438,541.71,537.827,0.0
51132.0,STARLINK-3393,PAYLOAD,2022-11-01 16:36:28,15.08833701,0.0002934,53.2168,33.8778,28.7996,331.3158,0.00019563,2.826e-05,0.0,0 STARLINK-3393,1 51132U 22005AE  22305.69199815  .00002826  00000-0  19563-3 0  9996,2 51132  53.2168  33.8778 0002934  28.7996 331.3158 15.08833701 43944,6917.9,95.438,541.794,537.735,0.0
51132.0,STARLINK-3393,PAYLOAD,2022-11-02 11:41:06,15.08830679,0.0002672,53.2165,30.3095,25.6325,334.4799,-2.9176e-05,-7.53e-06,0.0,0 STARLINK-3393,1 51132U 22005AE  22306.48687812 -.00000753  00000-0 -29176-4 0  9994,2 51132  53.2165  30.3095 0002672  25.6325 334.4799 15.08830679 44066,6917.909000000002,95.438,541.622,537.925,0.0
51132.0,STARLINK-3393,PAYLOAD,2022-11-02 18:02:38,15.08836116,0.0002782,53.2156,29.1179,22.7855,337.326,8.3825e-05,1.046e-05,0.0,0 STARLINK-3393,1 51132U 22005AE  22306.75183731  .00001046  00000-0  83825-4 0  9990,2 51132  53.2156  29.1179 0002782  22.7855 337.3260 15.08836116 44105,6917.892,95.438,541.682,537.8330000000002,0.0
51132.0,STARLINK-3393,PAYLOAD,2022-11-03 11:31:53,15.08847433,0.0002853999999999,53.2157,25.8477,23.2156,336.8964,0.0005099,7.838e-05,0.0,0 STARLINK-3393,1 51132U 22005AE  22307.48047875  .00007838  00000-0  50990-3 0  9990,2 51132  53.2157  25.8477 0002854  23.2156 336.8964 15.08847433 45335,6917.858,95.437,541.697,537.748,0.0
51132.0,STARLINK-3393,PAYLOAD,2022-11-03 16:18:02,15.08859945,0.000287,53.2162,24.9559,22.9217,337.1903,0.0012524,0.00019712,0.0,0 STARLINK-3393,1 51132U 22005AE  22307.67919703  .00019712  00000-0  12524-2 0  9993,2 51132  53.2162  24.9559 0002870  22.9217 337.1903 15.08859945 44241,6917.819,95.436,541.67,537.6990000000002,0.0
51132.0,STARLINK-3393,PAYLOAD,2022-11-04 11:22:39,15.08878555,0.0003253,53.2183,21.3912,25.59800000000001,334.5173,0.00074993,0.0001168,0.0,0 STARLINK-3393,1 51132U 22005AE  22308.47406280  .00011680  00000-0  74993-3 0  9998,2 51132  53.2183  21.3912 0003253  25.5980 334.5173 15.08878555 44361,6917.763000000001,95.435,541.878,537.377,0.0
51132.0,STARLINK-3393,PAYLOAD,2022-11-04 16:08:48,15.08852459,0.0002853,53.2153,20.4949,21.7046,338.4066,6.8305e-05,7.99e-06,0.0,0 STARLINK-3393,1 51132U 22005AE  22308.67278234  .00000799  00000-0  68305-4 0  9996,2 51132  53.2153  20.4949 0002853  21.7046 338.4066 15.08852459 45511,6917.842,95.437,541.681,537.734,0.0
51132.0,STARLINK-3393,PAYLOAD,2022-11-05 09:38:02,15.08851048,0.0002658,53.2165,17.224,22.5949,337.5159,-4.4215e-06,-3.59e-06,0.0,0 STARLINK-3393,1 51132U 22005AE  22309.40141780 -.00000359  00000-0 -44215-5 0  9992,2 51132  53.2165  17.2240 0002658  22.5949 337.5159 15.08851048 44500,6917.847,95.437,541.55,537.873,0.0
51132.0,STARLINK-3393,PAYLOAD,2022-11-05 14:24:12,15.08827598,0.0002883,53.2169,16.3323,20.9143,339.1966,-0.00050394,-8.298e-05,0.0,0 STARLINK-3393,1 51132U 22005AE  22309.60014679 -.00008298  00000-0 -50394-3 0  9993,2 51132  53.2169  16.3323 0002883  20.9143 339.1966 15.08827598 45658,6917.918000000002,95.438,541.778,537.789,0.0
